{
  "type": "FeatureCollection",
  "features": [
    {
      "type": "Feature",
      "properties": {
        "norad_id": 40115,
        "name": "WORLDVIEW-3 (WV-3)",
        "group": "resource",
        "lat": 15.743009864047124,
        "lon": -126.93044812394098,
        "alt_km": 611.0165356868056,
        "timestamp": "2025-12-04T10:51:49.763118+00:00",
        "meta_object_name": "WORLDVIEW-3 (WV-3)",
        "meta_object_id": "2014-048A",
        "meta_epoch": "2025-12-04T03:39:40.093632",
        "meta_mean_motion": 14.85478177,
        "meta_eccentricity": 0.0004131,
        "meta_inclination": 97.8625,
        "meta_ra_of_asc_node": 50.5407,
        "meta_arg_of_pericenter": 215.5895,
        "meta_mean_anomaly": 144.5045,
        "meta_ephemeris_type": 0,
        "meta_classification_type": "U",
        "meta_norad_cat_id": 40115,
        "meta_element_set_no": 999,
        "meta_rev_at_epoch": 61296,
        "meta_bstar": 0.00026161,
        "meta_mean_motion_dot": 2.204e-05,
        "meta_mean_motion_ddot": 0,
        "tle_line1": "1 40115U 14048A   25338.15254738  .00002204  00000+0  26161-3 0  9990",
        "tle_line2": "2 40115  97.8625  50.5407 0004131 215.5895 144.5045 14.85478177612964"
      },
      "geometry": {
        "type": "Point",
        "coordinates": [
          -126.93044812394098,
          15.743009864047124
        ]
      }
    },
    {
      "type": "Feature",
      "properties": {
        "norad_id": 40118,
        "name": "GAOFEN-2",
        "group": "resource",
        "lat": 51.991018929092576,
        "lon": -131.97421230122856,
        "alt_km": 616.9549789006178,
        "timestamp": "2025-12-04T10:51:49.763129+00:00",
        "meta_object_name": "GAOFEN-2",
        "meta_object_id": "2014-049A",
        "meta_epoch": "2025-12-04T05:25:32.040192",
        "meta_mean_motion": 14.80585341,
        "meta_eccentricity": 0.0008242,
        "meta_inclination": 98.0397,
        "meta_ra_of_asc_node": 37.3794,
        "meta_arg_of_pericenter": 137.4986,
        "meta_mean_anomaly": 222.6865,
        "meta_ephemeris_type": 0,
        "meta_classification_type": "U",
        "meta_norad_cat_id": 40118,
        "meta_element_set_no": 999,
        "meta_rev_at_epoch": 61038,
        "meta_bstar": 0.00020616,
        "meta_mean_motion_dot": 1.528e-05,
        "meta_mean_motion_ddot": 0,
        "tle_line1": "1 40118U 14049A   25338.22606528  .00001528  00000+0  20616-3 0  9997",
        "tle_line2": "2 40118  98.0397  37.3794 0008242 137.4986 222.6865 14.80585341610387"
      },
      "geometry": {
        "type": "Point",
        "coordinates": [
          -131.97421230122856,
          51.991018929092576
        ]
      }
    },
    {
      "type": "Feature",
      "properties": {
        "norad_id": 40143,
        "name": "YAOGAN-21",
        "group": "resource",
        "lat": -69.00453606819508,
        "lon": -177.0418795882916,
        "alt_km": 509.52765298688246,
        "timestamp": "2025-12-04T10:51:49.763140+00:00",
        "meta_object_name": "YAOGAN-21",
        "meta_object_id": "2014-053A",
        "meta_epoch": "2025-12-04T05:02:25.565568",
        "meta_mean_motion": 15.23513704,
        "meta_eccentricity": 0.0010197,
        "meta_inclination": 97.1771,
        "meta_ra_of_asc_node": 21.8946,
        "meta_arg_of_pericenter": 67.7185,
        "meta_mean_anomaly": 292.5133,
        "meta_ephemeris_type": 0,
        "meta_classification_type": "U",
        "meta_norad_cat_id": 40143,
        "meta_element_set_no": 999,
        "meta_rev_at_epoch": 62524,
        "meta_bstar": 0.00068813,
        "meta_mean_motion_dot": 0.00016406,
        "meta_mean_motion_ddot": 0,
        "tle_line1": "1 40143U 14053A   25338.21001812  .00016406  00000+0  68813-3 0  9996",
        "tle_line2": "2 40143  97.1771  21.8946 0010197  67.7185 292.5133 15.23513704625243"
      },
      "geometry": {
        "type": "Point",
        "coordinates": [
          -177.0418795882916,
          -69.00453606819508
        ]
      }
    },
    {
      "type": "Feature",
      "properties": {
        "norad_id": 40275,
        "name": "YAOGAN-22",
        "group": "resource",
        "lat": 17.380690309708324,
        "lon": -54.8387461888295,
        "alt_km": 1203.315098423198,
        "timestamp": "2025-12-04T10:51:49.763150+00:00",
        "meta_object_name": "YAOGAN-22",
        "meta_object_id": "2014-063A",
        "meta_epoch": "2025-12-03T23:05:23.791488",
        "meta_mean_motion": 13.15522462,
        "meta_eccentricity": 0.00058831,
        "meta_inclination": 100.7418,
        "meta_ra_of_asc_node": 121.2578,
        "meta_arg_of_pericenter": 269.4316,
        "meta_mean_anomaly": 90.6121,
        "meta_ephemeris_type": 0,
        "meta_classification_type": "U",
        "meta_norad_cat_id": 40275,
        "meta_element_set_no": 999,
        "meta_rev_at_epoch": 53414,
        "meta_bstar": 0.0001631289,
        "meta_mean_motion_dot": 1.5e-07,
        "meta_mean_motion_ddot": 0,
        "tle_line1": "1 40275U 14063A   25337.96208092  .00000015  00000+0  16313-3 0  9990",
        "tle_line2": "2 40275 100.7418 121.2578 0005883 269.4316  90.6121 13.15522462534149"
      },
      "geometry": {
        "type": "Point",
        "coordinates": [
          -54.8387461888295,
          17.380690309708324
        ]
      }
    },
    {
      "type": "Feature",
      "properties": {
        "norad_id": 40298,
        "name": "ASNARO",
        "group": "resource",
        "lat": 63.115195781165454,
        "lon": 39.81922104263491,
        "alt_km": 501.5704298777273,
        "timestamp": "2025-12-04T10:51:49.763160+00:00",
        "meta_object_name": "ASNARO",
        "meta_object_id": "2014-070A",
        "meta_epoch": "2025-12-04T01:05:52.938240",
        "meta_mean_motion": 15.19205311,
        "meta_eccentricity": 0.0005153,
        "meta_inclination": 97.3669,
        "meta_ra_of_asc_node": 54.2072,
        "meta_arg_of_pericenter": 147.48,
        "meta_mean_anomaly": 212.6753,
        "meta_ephemeris_type": 0,
        "meta_classification_type": "U",
        "meta_norad_cat_id": 40298,
        "meta_element_set_no": 999,
        "meta_rev_at_epoch": 61437,
        "meta_bstar": 0.00098587,
        "meta_mean_motion_dot": 0.00020733,
        "meta_mean_motion_ddot": 0,
        "tle_line1": "1 40298U 14070A   25338.04575160  .00020733  00000+0  98587-3 0  9998",
        "tle_line2": "2 40298  97.3669  54.2072 0005153 147.4800 212.6753 15.19205311614378"
      },
      "geometry": {
        "type": "Point",
        "coordinates": [
          39.81922104263491,
          63.115195781165454
        ]
      }
    },
    {
      "type": "Feature",
      "properties": {
        "norad_id": 40310,
        "name": "YAOGAN-24",
        "group": "resource",
        "lat": -62.06878371132803,
        "lon": -86.123939818988,
        "alt_km": 646.8375780926817,
        "timestamp": "2025-12-04T10:51:49.763170+00:00",
        "meta_object_name": "YAOGAN-24",
        "meta_object_id": "2014-072A",
        "meta_epoch": "2025-12-04T00:00:20.169216",
        "meta_mean_motion": 14.76147906,
        "meta_eccentricity": 0.00142909,
        "meta_inclination": 98.1218,
        "meta_ra_of_asc_node": 109.0474,
        "meta_arg_of_pericenter": 165.0865,
        "meta_mean_anomaly": 195.0768,
        "meta_ephemeris_type": 0,
        "meta_classification_type": "U",
        "meta_norad_cat_id": 40310,
        "meta_element_set_no": 999,
        "meta_rev_at_epoch": 59492,
        "meta_bstar": 0.00027008168,
        "meta_mean_motion_dot": 1.816e-05,
        "meta_mean_motion_ddot": 0,
        "tle_line1": "1 40310U 14072A   25338.00023344  .00001816  00000+0  27008-3 0  9994",
        "tle_line2": "2 40310  98.1218 109.0474 0014290 165.0865 195.0768 14.76147906594921"
      },
      "geometry": {
        "type": "Point",
        "coordinates": [
          -86.123939818988,
          -62.06878371132803
        ]
      }
    },
    {
      "type": "Feature",
      "properties": {
        "norad_id": 40336,
        "name": "CBERS 4",
        "group": "resource",
        "lat": 64.29833137165842,
        "lon": -125.5196652879684,
        "alt_km": 765.9783329610627,
        "timestamp": "2025-12-04T10:51:49.763180+00:00",
        "meta_object_name": "CBERS 4",
        "meta_object_id": "2014-079A",
        "meta_epoch": "2025-12-04T03:38:30.302304",
        "meta_mean_motion": 14.35529066,
        "meta_eccentricity": 0.000148,
        "meta_inclination": 98.3322,
        "meta_ra_of_asc_node": 36.4621,
        "meta_arg_of_pericenter": 126.0032,
        "meta_mean_anomaly": 234.1291,
        "meta_ephemeris_type": 0,
        "meta_classification_type": "U",
        "meta_norad_cat_id": 40336,
        "meta_element_set_no": 999,
        "meta_rev_at_epoch": 57597,
        "meta_bstar": 0.00012806,
        "meta_mean_motion_dot": 3.26e-06,
        "meta_mean_motion_ddot": 0,
        "tle_line1": "1 40336U 14079A   25338.15173961  .00000326  00000+0  12806-3 0  9991",
        "tle_line2": "2 40336  98.3322  36.4621 0001480 126.0032 234.1291 14.35529066575970"
      },
      "geometry": {
        "type": "Point",
        "coordinates": [
          -125.5196652879684,
          64.29833137165842
        ]
      }
    }
  ]
}